     3.04           N: GNSS NAV DATA    M: MIXED            RINEX VERSION / TYPE
ssrcrin-15.6.1x                         20250101 233000 UTC PGM / RUN BY / DATE 
    18                                                      LEAP SECONDS        
                                                            END OF HEADER       
S23 2025 01 01 23 29 52 0.000000000000E+00 0.000000000000E+00 3.438010000000E+05
     3.866796400000E+04 0.000000000000E+00 0.000000000000E+00 6.300000000000E+01
     1.681330800000E+04 0.000000000000E+00 0.000000000000E+00 3.276700000000E+04
     0.000000000000E+00 0.000000000000E+00 0.000000000000E+00 1.470000000000E+02
S36 2025 01 01 23 29 04 0.000000000000E+00 0.000000000000E+00 3.438220000000E+05
     4.200368800000E+04 0.000000000000E+00 0.000000000000E+00 6.300000000000E+01
     3.674846960000E+03 0.000000000000E+00 0.000000000000E+00 3.276700000000E+04
     0.000000000000E+00 0.000000000000E+00 0.000000000000E+00 1.960000000000E+02
R21 2025 01 01 23 45 00-1.645991578698E-04-3.637978807092E-12 3.438000000000E+05
     1.353327441406E+04 1.818829536438E+00 4.656612873077E-09 0.000000000000E+00
     1.822271972656E+03 2.327010154724E+00 1.862645149231E-09 4.000000000000E+00
     2.154541113281E+04-1.341867446899E+00 0.000000000000E+00 0.000000000000E+00
R05 2025 01 01 23 45 00 1.431060954928E-04 9.094947017729E-13 3.438000000000E+05
     4.334436035156E+03-3.132620811462E+00 3.725290298462E-09 0.000000000000E+00
     1.015245117188E+04 3.265857696533E-01 9.313225746155E-10 1.000000000000E+00
     2.300955078125E+04 4.436197280884E-01-0.000000000000E+00 0.000000000000E+00
R06 2025 01 01 23 45 00-1.955702900887E-04-9.094947017729E-13 3.438000000000E+05
     2.280275048828E+04-1.554391860962E+00 4.656612873077E-09 0.000000000000E+00
     1.751644531250E+03 9.650325775146E-02 2.793967723846E-09-4.000000000000E+00
     1.131117724609E+04 3.113637924194E+00 1.862645149231E-09 0.000000000000E+00
R20 2025 01 01 23 45 00-1.240829005837E-04-0.000000000000E+00 3.438000000000E+05
     1.664381884766E+04 9.162731170654E-01 4.656612873077E-09 0.000000000000E+00
     1.688992333984E+04 9.431037902832E-01 9.313225746155E-10 2.000000000000E+00
     9.472065429688E+03-3.292970657349E+00 1.862645149231E-09 0.000000000000E+00
R22 2025 01 01 23 45 00-5.380809307098E-05-1.818989403546E-12 3.438000000000E+05
     1.754904296875E+03 1.570151329041E+00 9.313225746155E-10 2.000000000000E+00
    -1.471455761719E+04 2.366461753845E+00 1.862645149231E-09-3.000000000000E+00
     2.078964941406E+04 1.545753479004E+00-1.862645149231E-09 0.000000000000E+00
R12 2025 01 01 23 45 00 4.910398274660E-05 9.094947017729E-13 3.438000000000E+05
     1.258538085938E+03 6.363277435303E-01-0.000000000000E+00 0.000000000000E+00
    -2.109636230469E+04-1.852704048157E+00 1.862645149231E-09-1.000000000000E+00
     1.431056982422E+04-2.788864135742E+00-1.862645149231E-09 0.000000000000E+00
C29 2025 01 01 23 00 00 3.833959344774E-04 5.085709631203E-12 0.000000000000E+00
     1.000000000000E+00 1.688281250000E+02 3.681581924093E-09 1.950780587670E-01
     8.350703865290E-06 8.270179387182E-05 9.530223906040E-06 5.282625534058E+03
     3.420000000000E+05-8.847564458847E-09-2.434524024932E+00-5.029141902924E-08
     9.542494978990E-01 1.630937500000E+02 4.603143975309E-01-6.690278676961E-09
    -8.857511808063E-11 0.000000000000E+00 9.910000000000E+02 0.000000000000E+00
     2.000000000000E+00 0.000000000000E+00 3.000000000000E-10 3.000000000000E-10
     3.438480000000E+05 1.000000000000E+00
E07 2025 01 01 23 20 00-1.613534404896E-04-1.975308805413E-12 0.000000000000E+00
     6.400000000000E+01-1.712500000000E+02 2.639038497975E-09 1.230245066634E+00
    -7.880851626396E-06 1.247427426279E-04 1.084990799427E-05 5.440616371155E+03
     3.432000000000E+05-1.080334186554E-07 3.130838379985E-01-1.303851604462E-08
     9.636403523344E-01 1.116875000000E+02-3.246252083429E-01-5.180572934514E-09
     1.607209803882E-10 5.170000000000E+02 2.347000000000E+03
     3.120000000000E+00 0.000000000000E+00 3.725290298462E-09 4.423782229424E-09
     3.438650000000E+05
E26 2025 01 01 23 20 00-1.661350834183E-04 1.094235813071E-11 0.000000000000E+00
     6.400000000000E+01 1.794062500000E+02 2.726184985119E-09-2.613479503466E+00
     8.381903171539E-06 3.915645647794E-04 2.257525920868E-06 5.440608098984E+03
     3.432000000000E+05-6.891787052155E-08-1.777040065377E+00 5.587935447693E-09
     9.930118369860E-01 3.060312500000E+02-1.481317922632E+00-5.598804641258E-09
     2.921550265724E-10 5.170000000000E+02 2.347000000000E+03
     3.120000000000E+00 0.000000000000E+00-6.752088665962E-09-6.752088665962E-09
     3.438650000000E+05
E24 2025 01 01 23 20 00-1.188602473121E-03-2.130207121809E-11 0.000000000000E+00
     6.400000000000E+01-2.328125000000E+01 3.490502536298E-09 1.023208423526E+00
    -1.059845089912E-06 7.871628040448E-04 6.150454282761E-06 5.440610885620E+03
     3.432000000000E+05 1.862645149231E-09 2.416074607662E+00 2.793967723846E-08
     9.620353702804E-01 2.069062500000E+02 9.160070769715E-01-5.570946337991E-09
    -4.457328522767E-10 5.170000000000E+02 2.347000000000E+03
     3.120000000000E+00 0.000000000000E+00-5.820766091347E-09-6.053596735001E-09
     3.438820000000E+05
S36 2025 01 01 23 31 28 0.000000000000E+00 0.000000000000E+00 3.438980000000E+05
     4.200368800000E+04 0.000000000000E+00 0.000000000000E+00 6.300000000000E+01
     3.674846960000E+03 0.000000000000E+00 0.000000000000E+00 3.276700000000E+04
     0.000000000000E+00 0.000000000000E+00 0.000000000000E+00 1.970000000000E+02
S23 2025 01 01 23 32 00 0.000000000000E+00 0.000000000000E+00 3.439290000000E+05
     3.866796400000E+04 0.000000000000E+00 0.000000000000E+00 6.300000000000E+01
     1.681330800000E+04 0.000000000000E+00 0.000000000000E+00 3.276700000000E+04
     0.000000000000E+00 0.000000000000E+00 0.000000000000E+00 1.480000000000E+02
E26 2025 01 01 23 20 00-1.661352580413E-04 1.094235813071E-11 0.000000000000E+00
     6.400000000000E+01 1.794062500000E+02 2.726184985119E-09-2.613479503466E+00
     8.381903171539E-06 3.915645647794E-04 2.257525920868E-06 5.440608098984E+03
     3.432000000000E+05-6.891787052155E-08-1.777040065377E+00 5.587935447693E-09
     9.930118369860E-01 3.060312500000E+02-1.481317922632E+00-5.598804641258E-09
     2.921550265724E-10 2.580000000000E+02 2.347000000000E+03
     3.120000000000E+00 0.000000000000E+00-6.752088665962E-09 0.000000000000E+00
     3.439400000000E+05
E07 2025 01 01 23 20 00-1.613548374735E-04-1.975308805413E-12 0.000000000000E+00
     6.400000000000E+01-1.712500000000E+02 2.639038497975E-09 1.230245066634E+00
    -7.880851626396E-06 1.247427426279E-04 1.084990799427E-05 5.440616371155E+03
     3.432000000000E+05-1.080334186554E-07 3.130838379985E-01-1.303851604462E-08
     9.636403523344E-01 1.116875000000E+02-3.246252083429E-01-5.180572934514E-09
     1.607209803882E-10 2.580000000000E+02 2.347000000000E+03
     3.120000000000E+00 0.000000000000E+00 3.725290298462E-09 0.000000000000E+00
     3.439400000000E+05
E24 2025 01 01 23 20 00-1.188602414913E-03-2.130207121809E-11 0.000000000000E+00
     6.400000000000E+01-2.328125000000E+01 3.490502536298E-09 1.023208423526E+00
    -1.059845089912E-06 7.871628040448E-04 6.150454282761E-06 5.440610885620E+03
     3.432000000000E+05 1.862645149231E-09 2.416074607662E+00 2.793967723846E-08
     9.620353702804E-01 2.069062500000E+02 9.160070769715E-01-5.570946337991E-09
    -4.457328522767E-10 2.580000000000E+02 2.347000000000E+03
     3.120000000000E+00 0.000000000000E+00-5.820766091347E-09 0.000000000000E+00
     3.439400000000E+05
E12 2025 01 01 23 20 00-1.367264485452E-03-1.718092335068E-11 0.000000000000E+00
     6.400000000000E+01 1.745312500000E+02 2.798330847426E-09 1.030869760618E+00
     8.309260010719E-06 3.850739449263E-04 1.097097992897E-06 5.440610900879E+03
     3.432000000000E+05 6.332993507385E-08-1.775411372347E+00-3.725290298462E-09
     9.966047111236E-01 3.313437500000E+02-4.202803832564E-01-5.676665027313E-09
     2.153661137202E-10 5.170000000000E+02 2.347000000000E+03
     3.120000000000E+00 0.000000000000E+00-1.327134668827E-08-1.257285475731E-08
     3.439540000000E+05
R13 2025 01 01 23 45 00-5.502812564373E-05-0.000000000000E+00 3.439800000000E+05
    -8.025194335938E+03 1.110396385193E+00 9.313225746155E-10 0.000000000000E+00
    -9.047117187500E+03-2.869989395142E+00 9.313225746155E-10-2.000000000000E+00
     2.243848779297E+04-7.586021423340E-01-2.793967723846E-09 0.000000000000E+00
C16 2025 01 01 23 00 00-2.400705125183E-05-3.107025747795E-11 0.000000000000E+00
     1.000000000000E+00-2.584375000000E+01 1.177549049644E-09 2.762057373976E+00
    -5.420297384262E-07 7.810286246240E-03 1.623528078198E-05 6.493852998734E+03
     3.420000000000E+05 1.210719347000E-07 1.216699469262E+00-3.213062882423E-08
     9.619524345287E-01-2.511718750000E+02-2.245265167552E+00-1.571851188197E-09
     1.213979138532E-09 0.000000000000E+00 9.910000000000E+02 0.000000000000E+00
     2.000000000000E+00 0.000000000000E+00-2.800000000000E-09 4.600000000000E-09
     3.439980000000E+05 0.000000000000E+00
S36 2025 01 01 23 34 08 0.000000000000E+00 0.000000000000E+00 3.440540000000E+05
     4.200368800000E+04 0.000000000000E+00 0.000000000000E+00 6.300000000000E+01
     3.674846960000E+03 0.000000000000E+00 0.000000000000E+00 3.276700000000E+04
     0.000000000000E+00 0.000000000000E+00 0.000000000000E+00 1.980000000000E+02
S23 2025 01 01 23 34 08 0.000000000000E+00 0.000000000000E+00 3.440560000000E+05
     3.866796400000E+04 0.000000000000E+00 0.000000000000E+00 6.300000000000E+01
     1.681330800000E+04 0.000000000000E+00 0.000000000000E+00 3.276700000000E+04
     0.000000000000E+00 0.000000000000E+00 0.000000000000E+00 1.490000000000E+02
